[{"OBJECT_NAME":"EUTELSAT 174A","OBJECT_ID":"2005-052A","EPOCH":"2026-04-26T18:50:38.569632","MEAN_MOTION":1.00272763,"ECCENTRICITY":0.00064404,"INCLINATION":4.0918,"RA_OF_ASC_NODE":77.1405,"ARG_OF_PERICENTER":318.7915,"MEAN_ANOMALY":275.4962,"EPHEMERIS_TYPE":0,"CLASSIFICATION_TYPE":"U","NORAD_CAT_ID":28924,"ELEMENT_SET_NO":999,"REV_AT_EPOCH":5181,"BSTAR":0,"MEAN_MOTION_DOT":1.0e-8,"MEAN_MOTION_DDOT":0},{"OBJECT_NAME":"EUTELSAT 33F","OBJECT_ID":"2006-032A","EPOCH":"2026-04-27T04:56:38.684256","MEAN_MOTION":1.00274856,"ECCENTRICITY":0.00035543,"INCLINATION":1.5316,"RA_OF_ASC_NODE":82.7698,"ARG_OF_PERICENTER":314.6749,"MEAN_ANOMALY":285.0288,"EPHEMERIS_TYPE":0,"CLASSIFICATION_TYPE":"U","NORAD_CAT_ID":29270,"ELEMENT_SET_NO":999,"REV_AT_EPOCH":4679,"BSTAR":0,"MEAN_MOTION_DOT":1.47e-6,"MEAN_MOTION_DDOT":0},{"OBJECT_NAME":"EUTELSAT HOTBIRD 13C","OBJECT_ID":"2008-065A","EPOCH":"2026-04-27T01:18:27.194688","MEAN_MOTION":1.00269987,"ECCENTRICITY":0.00042304,"INCLINATION":2.821,"RA_OF_ASC_NODE":79.7675,"ARG_OF_PERICENTER":321.656,"MEAN_ANOMALY":142.951,"EPHEMERIS_TYPE":0,"CLASSIFICATION_TYPE":"U","NORAD_CAT_ID":33459,"ELEMENT_SET_NO":999,"REV_AT_EPOCH":4683,"BSTAR":0,"MEAN_MOTION_DOT":-2.91e-6,"MEAN_MOTION_DDOT":0},{"OBJECT_NAME":"EUTELSAT 36B","OBJECT_ID":"2009-065A","EPOCH":"2026-04-27T04:48:38.757312","MEAN_MOTION":1.00270056,"ECCENTRICITY":0.00058888,"INCLINATION":0.364,"RA_OF_ASC_NODE":79.8917,"ARG_OF_PERICENTER":315.3898,"MEAN_ANOMALY":302.5685,"EPHEMERIS_TYPE":0,"CLASSIFICATION_TYPE":"U","NORAD_CAT_ID":36101,"ELEMENT_SET_NO":999,"REV_AT_EPOCH":6019,"BSTAR":0,"MEAN_MOTION_DOT":1.03e-6,"MEAN_MOTION_DDOT":0},{"OBJECT_NAME":"EUTELSAT KA-SAT 9A","OBJECT_ID":"2010-069A","EPOCH":"2026-04-27T05:12:38.611584","MEAN_MOTION":1.00268523,"ECCENTRICITY":0.00042637,"INCLINATION":0.0616,"RA_OF_ASC_NODE":353.6476,"ARG_OF_PERICENTER":146.6564,"MEAN_ANOMALY":162.0834,"EPHEMERIS_TYPE":0,"CLASSIFICATION_TYPE":"U","NORAD_CAT_ID":37258,"ELEMENT_SET_NO":999,"REV_AT_EPOCH":4349,"BSTAR":0,"MEAN_MOTION_DOT":5.1e-7,"MEAN_MOTION_DDOT":0},{"OBJECT_NAME":"EUTELSAT 7 WEST A","OBJECT_ID":"2011-051A","EPOCH":"2026-04-27T05:28:38.743680","MEAN_MOTION":1.00272002,"ECCENTRICITY":0.0002639,"INCLINATION":0.0824,"RA_OF_ASC_NODE":37.9498,"ARG_OF_PERICENTER":64.0617,"MEAN_ANOMALY":188.0547,"EPHEMERIS_TYPE":0,"CLASSIFICATION_TYPE":"U","NORAD_CAT_ID":37816,"ELEMENT_SET_NO":999,"REV_AT_EPOCH":5336,"BSTAR":0,"MEAN_MOTION_DOT":-7.0e-7,"MEAN_MOTION_DDOT":0},{"OBJECT_NAME":"EUTELSAT 16A","OBJECT_ID":"2011-057A","EPOCH":"2026-04-27T05:12:38.611584","MEAN_MOTION":1.00270987,"ECCENTRICITY":0.00057377,"INCLINATION":0.0544,"RA_OF_ASC_NODE":9.5048,"ARG_OF_PERICENTER":32.1832,"MEAN_ANOMALY":267.6793,"EPHEMERIS_TYPE":0,"CLASSIFICATION_TYPE":"U","NORAD_CAT_ID":37836,"ELEMENT_SET_NO":999,"REV_AT_EPOCH":682,"BSTAR":0,"MEAN_MOTION_DOT":9.4e-7,"MEAN_MOTION_DDOT":0},{"OBJECT_NAME":"EUTELSAT 21B","OBJECT_ID":"2012-062B","EPOCH":"2026-04-27T05:04:38.648352","MEAN_MOTION":1.00270617,"ECCENTRICITY":0.00029181,"INCLINATION":0.0707,"RA_OF_ASC_NODE":358.4111,"ARG_OF_PERICENTER":37.4469,"MEAN_ANOMALY":277.1039,"EPHEMERIS_TYPE":0,"CLASSIFICATION_TYPE":"U","NORAD_CAT_ID":38992,"ELEMENT_SET_NO":999,"REV_AT_EPOCH":4931,"BSTAR":0,"MEAN_MOTION_DOT":1.2e-6,"MEAN_MOTION_DDOT":0},{"OBJECT_NAME":"EUTELSAT 70B","OBJECT_ID":"2012-069A","EPOCH":"2026-04-27T04:08:38.663808","MEAN_MOTION":1.00271554,"ECCENTRICITY":0.00050795,"INCLINATION":0.0705,"RA_OF_ASC_NODE":18.8077,"ARG_OF_PERICENTER":14.1996,"MEAN_ANOMALY":314.8016,"EPHEMERIS_TYPE":0,"CLASSIFICATION_TYPE":"U","NORAD_CAT_ID":39020,"ELEMENT_SET_NO":999,"REV_AT_EPOCH":4899,"BSTAR":0,"MEAN_MOTION_DOT":-5.3e-7,"MEAN_MOTION_DDOT":0},{"OBJECT_NAME":"EUTELSAT 117 WEST A","OBJECT_ID":"2013-012A","EPOCH":"2026-04-27T05:21:59.025312","MEAN_MOTION":1.00270948,"ECCENTRICITY":0.00025784,"INCLINATION":0.0182,"RA_OF_ASC_NODE":312.5056,"ARG_OF_PERICENTER":71.7062,"MEAN_ANOMALY":154.6977,"EPHEMERIS_TYPE":0,"CLASSIFICATION_TYPE":"U","NORAD_CAT_ID":39122,"ELEMENT_SET_NO":999,"REV_AT_EPOCH":4792,"BSTAR":0,"MEAN_MOTION_DOT":-2.3e-7,"MEAN_MOTION_DDOT":0},{"OBJECT_NAME":"EUTELSAT 7B","OBJECT_ID":"2013-022A","EPOCH":"2026-04-27T05:12:38.611584","MEAN_MOTION":1.00271744,"ECCENTRICITY":0.00059041,"INCLINATION":0.0761,"RA_OF_ASC_NODE":22.5787,"ARG_OF_PERICENTER":356.3782,"MEAN_ANOMALY":281.3961,"EPHEMERIS_TYPE":0,"CLASSIFICATION_TYPE":"U","NORAD_CAT_ID":39163,"ELEMENT_SET_NO":999,"REV_AT_EPOCH":4743,"BSTAR":0,"MEAN_MOTION_DOT":3.8e-7,"MEAN_MOTION_DDOT":0},{"OBJECT_NAME":"EXPRESS-AT1","OBJECT_ID":"2014-010A","EPOCH":"2026-04-27T01:49:16.738752","MEAN_MOTION":1.0028901,"ECCENTRICITY":0.00018437,"INCLINATION":0.1266,"RA_OF_ASC_NODE":84.1756,"ARG_OF_PERICENTER":17.2846,"MEAN_ANOMALY":198.5979,"EPHEMERIS_TYPE":0,"CLASSIFICATION_TYPE":"U","NORAD_CAT_ID":39612,"ELEMENT_SET_NO":999,"REV_AT_EPOCH":4430,"BSTAR":0,"MEAN_MOTION_DOT":5.3e-7,"MEAN_MOTION_DDOT":0},{"OBJECT_NAME":"EXPRESS-AT2","OBJECT_ID":"2014-010B","EPOCH":"2026-04-27T04:40:38.535744","MEAN_MOTION":1.00274045,"ECCENTRICITY":4.016e-5,"INCLINATION":0.0104,"RA_OF_ASC_NODE":221.4585,"ARG_OF_PERICENTER":134.1196,"MEAN_ANOMALY":345.7657,"EPHEMERIS_TYPE":0,"CLASSIFICATION_TYPE":"U","NORAD_CAT_ID":39613,"ELEMENT_SET_NO":999,"REV_AT_EPOCH":4398,"BSTAR":0,"MEAN_MOTION_DOT":6.8e-7,"MEAN_MOTION_DDOT":0},{"OBJECT_NAME":"EUTELSAT 3B","OBJECT_ID":"2014-030A","EPOCH":"2026-04-27T05:20:38.796864","MEAN_MOTION":1.00272971,"ECCENTRICITY":0.00040178,"INCLINATION":0.0708,"RA_OF_ASC_NODE":20.0408,"ARG_OF_PERICENTER":12.7386,"MEAN_ANOMALY":265.6938,"EPHEMERIS_TYPE":0,"CLASSIFICATION_TYPE":"U","NORAD_CAT_ID":39773,"ELEMENT_SET_NO":999,"REV_AT_EPOCH":4355,"BSTAR":0,"MEAN_MOTION_DOT":1.0e-7,"MEAN_MOTION_DDOT":0},{"OBJECT_NAME":"EUTELSAT 115 WEST B","OBJECT_ID":"2015-010B","EPOCH":"2026-04-27T04:14:38.425632","MEAN_MOTION":1.00270235,"ECCENTRICITY":8.39e-6,"INCLINATION":0.0141,"RA_OF_ASC_NODE":96.1077,"ARG_OF_PERICENTER":9.1595,"MEAN_ANOMALY":58.6677,"EPHEMERIS_TYPE":0,"CLASSIFICATION_TYPE":"U","NORAD_CAT_ID":40425,"ELEMENT_SET_NO":999,"REV_AT_EPOCH":4088,"BSTAR":0,"MEAN_MOTION_DOT":-3.5e-7,"MEAN_MOTION_DDOT":0},{"OBJECT_NAME":"EUTELSAT 8 WEST B","OBJECT_ID":"2015-039B","EPOCH":"2026-04-27T05:28:38.743680","MEAN_MOTION":1.00271826,"ECCENTRICITY":0.00038892,"INCLINATION":0.0692,"RA_OF_ASC_NODE":358.8325,"ARG_OF_PERICENTER":38.6524,"MEAN_ANOMALY":251.8993,"EPHEMERIS_TYPE":0,"CLASSIFICATION_TYPE":"U","NORAD_CAT_ID":40875,"ELEMENT_SET_NO":999,"REV_AT_EPOCH":3914,"BSTAR":0,"MEAN_MOTION_DOT":-7.6e-7,"MEAN_MOTION_DDOT":0},{"OBJECT_NAME":"EUTELSAT 9B","OBJECT_ID":"2016-005A","EPOCH":"2026-04-27T05:12:38.611584","MEAN_MOTION":1.00273551,"ECCENTRICITY":0.00034045,"INCLINATION":0.0767,"RA_OF_ASC_NODE":72.8414,"ARG_OF_PERICENTER":287.1866,"MEAN_ANOMALY":302.3394,"EPHEMERIS_TYPE":0,"CLASSIFICATION_TYPE":"U","NORAD_CAT_ID":41310,"ELEMENT_SET_NO":999,"REV_AT_EPOCH":3760,"BSTAR":0,"MEAN_MOTION_DOT":5.2e-7,"MEAN_MOTION_DDOT":0}]
