EUTELSAT 174A           
1 28924U 05052A   26116.78516863  .00000001  00000+0  00000+0 0  9996
2 28924   4.0918  77.1405 0006440 318.7915 275.4962  1.00272763 51819
EUTELSAT 33F            
1 29270U 06032A   26117.20600329  .00000147  00000+0  00000+0 0  9990
2 29270   1.5316  82.7698 0003554 314.6749 285.0288  1.00274856 46791
EUTELSAT HOTBIRD 13C    
1 33459U 08065A   26117.05448142 -.00000291  00000+0  00000+0 0  9999
2 33459   2.8210  79.7675 0004230 321.6560 142.9510  1.00269987 46837
EUTELSAT 36B            
1 36101U 09065A   26117.20044858  .00000103  00000+0  00000+0 0  9991
2 36101   0.3640  79.8917 0005888 315.3898 302.5685  1.00270056 60199
EUTELSAT KA-SAT 9A      
1 37258U 10069A   26117.21711356  .00000051  00000+0  00000+0 0  9998
2 37258   0.0616 353.6476 0004263 146.6564 162.0834  1.00268523 43492
EUTELSAT 7 WEST A       
1 37816U 11051A   26117.22822620 -.00000070  00000+0  00000+0 0  9990
2 37816   0.0824  37.9498 0002639  64.0617 188.0547  1.00272002 53369
EUTELSAT 16A            
1 37836U 11057A   26117.21711356  .00000094  00000+0  00000+0 0  9995
2 37836   0.0544   9.5048 0005737  32.1832 267.6793  1.00270987  6829
EUTELSAT 21B            
1 38992U 12062B   26117.21155843  .00000120  00000+0  00000+0 0  9999
2 38992   0.0707 358.4111 0002918  37.4469 277.1039  1.00270617 49313
EUTELSAT 70B            
1 39020U 12069A   26117.17266972 -.00000053  00000+0  00000+0 0  9996
2 39020   0.0705  18.8077 0005079  14.1996 314.8016  1.00271554 48998
EUTELSAT 117 WEST A     
1 39122U 13012A   26117.22359983 -.00000023  00000+0  00000+0 0  9996
2 39122   0.0182 312.5056 0002578  71.7062 154.6977  1.00270948 47929
EUTELSAT 7B             
1 39163U 13022A   26117.21711356  .00000038  00000+0  00000+0 0  9992
2 39163   0.0761  22.5787 0005904 356.3782 281.3961  1.00271744 47435
EXPRESS-AT1             
1 39612U 14010A   26117.07588818  .00000053  00000+0  00000+0 0  9995
2 39612   0.1266  84.1756 0001843  17.2846 198.5979  1.00289010 44303
EXPRESS-AT2             
1 39613U 14010B   26117.19489046  .00000068  00000+0  00000+0 0  9998
2 39613   0.0104 221.4585 0000401 134.1196 345.7657  1.00274045 43980
EUTELSAT 3B             
1 39773U 14030A   26117.22267126  .00000010  00000+0  00000+0 0  9991
2 39773   0.0708  20.0408 0004017  12.7386 265.6938  1.00272971 43554
EUTELSAT 115 WEST B     
1 40425U 15010B   26117.17683363 -.00000035  00000+0  00000+0 0  9993
2 40425   0.0141  96.1077 0000083   9.1595  58.6677  1.00270235 40882
EUTELSAT 8 WEST B       
1 40875U 15039B   26117.22822620 -.00000076  00000+0  00000+0 0  9995
2 40875   0.0692 358.8325 0003889  38.6524 251.8993  1.00271826 39144
EUTELSAT 9B             
1 41310U 16005A   26117.21711356  .00000052  00000+0  00000+0 0  9999
2 41310   0.0767  72.8414 0003404 287.1866 302.3394  1.00273551 37600
